[{"OBJECT_NAME":"STARLINK-37001","OBJECT_ID":"2026-059K","EPOCH":"2026-04-14T20:00:01.999008","MEAN_MOTION":15.53107433,"ECCENTRICITY":8.5e-5,"INCLINATION":53.1592,"RA_OF_ASC_NODE":182.3469,"ARG_OF_PERICENTER":62.8623,"MEAN_ANOMALY":244.0178,"EPHEMERIS_TYPE":0,"CLASSIFICATION_TYPE":"U","NORAD_CAT_ID":68330,"ELEMENT_SET_NO":999,"REV_AT_EPOCH":485,"BSTAR":-0.034418,"MEAN_MOTION_DOT":-0.01964586,"MEAN_MOTION_DDOT":0},{"OBJECT_NAME":"STARLINK-36932","OBJECT_ID":"2026-059L","EPOCH":"2026-04-14T20:00:01.999008","MEAN_MOTION":15.7272346,"ECCENTRICITY":0.0001107,"INCLINATION":53.1593,"RA_OF_ASC_NODE":181.7215,"ARG_OF_PERICENTER":80.6904,"MEAN_ANOMALY":173.3293,"EPHEMERIS_TYPE":0,"CLASSIFICATION_TYPE":"U","NORAD_CAT_ID":68331,"ELEMENT_SET_NO":999,"REV_AT_EPOCH":485,"BSTAR":-0.016105,"MEAN_MOTION_DOT":-0.01960995,"MEAN_MOTION_DDOT":0},{"OBJECT_NAME":"STARLINK-37205","OBJECT_ID":"2026-059M","EPOCH":"2026-04-14T20:00:01.999008","MEAN_MOTION":15.66135952,"ECCENTRICITY":0.0001319,"INCLINATION":53.16,"RA_OF_ASC_NODE":181.8452,"ARG_OF_PERICENTER":62.7346,"MEAN_ANOMALY":130.7254,"EPHEMERIS_TYPE":0,"CLASSIFICATION_TYPE":"U","NORAD_CAT_ID":68332,"ELEMENT_SET_NO":999,"REV_AT_EPOCH":485,"BSTAR":-0.021046,"MEAN_MOTION_DOT":-0.01947146,"MEAN_MOTION_DDOT":0},{"OBJECT_NAME":"STARLINK-37180","OBJECT_ID":"2026-059N","EPOCH":"2026-04-14T20:00:01.999008","MEAN_MOTION":15.50462461,"ECCENTRICITY":0.0001388,"INCLINATION":53.1596,"RA_OF_ASC_NODE":182.4474,"ARG_OF_PERICENTER":65.9533,"MEAN_ANOMALY":191.1453,"EPHEMERIS_TYPE":0,"CLASSIFICATION_TYPE":"U","NORAD_CAT_ID":68333,"ELEMENT_SET_NO":999,"REV_AT_EPOCH":485,"BSTAR":-0.029943,"MEAN_MOTION_DOT":-0.01564782,"MEAN_MOTION_DDOT":0},{"OBJECT_NAME":"STARLINK-37191","OBJECT_ID":"2026-059P","EPOCH":"2026-04-14T20:00:01.999008","MEAN_MOTION":15.65930993,"ECCENTRICITY":0.0001393,"INCLINATION":53.1592,"RA_OF_ASC_NODE":181.8322,"ARG_OF_PERICENTER":58.8188,"MEAN_ANOMALY":140.7106,"EPHEMERIS_TYPE":0,"CLASSIFICATION_TYPE":"U","NORAD_CAT_ID":68334,"ELEMENT_SET_NO":999,"REV_AT_EPOCH":485,"BSTAR":-0.021013,"MEAN_MOTION_DOT":-0.01930313,"MEAN_MOTION_DDOT":0},{"OBJECT_NAME":"STARLINK-37217","OBJECT_ID":"2026-059Q","EPOCH":"2026-04-14T20:00:01.999008","MEAN_MOTION":15.65015726,"ECCENTRICITY":0.0001271,"INCLINATION":53.1603,"RA_OF_ASC_NODE":181.8486,"ARG_OF_PERICENTER":65.2929,"MEAN_ANOMALY":126.3036,"EPHEMERIS_TYPE":0,"CLASSIFICATION_TYPE":"U","NORAD_CAT_ID":68335,"ELEMENT_SET_NO":999,"REV_AT_EPOCH":485,"BSTAR":-0.021904,"MEAN_MOTION_DOT":-0.01937951,"MEAN_MOTION_DDOT":0},{"OBJECT_NAME":"STARLINK-37143","OBJECT_ID":"2026-059R","EPOCH":"2026-04-14T20:00:01.999008","MEAN_MOTION":15.69053858,"ECCENTRICITY":0.000116,"INCLINATION":53.1594,"RA_OF_ASC_NODE":181.7412,"ARG_OF_PERICENTER":73.9826,"MEAN_ANOMALY":169.8967,"EPHEMERIS_TYPE":0,"CLASSIFICATION_TYPE":"U","NORAD_CAT_ID":68336,"ELEMENT_SET_NO":999,"REV_AT_EPOCH":485,"BSTAR":-0.018653,"MEAN_MOTION_DOT":-0.01946061,"MEAN_MOTION_DDOT":0},{"OBJECT_NAME":"STARLINK-36237","OBJECT_ID":"2026-059S","EPOCH":"2026-04-14T20:00:01.999008","MEAN_MOTION":15.73689603,"ECCENTRICITY":9.0e-5,"INCLINATION":53.1589,"RA_OF_ASC_NODE":181.6564,"ARG_OF_PERICENTER":67.4591,"MEAN_ANOMALY":218.5083,"EPHEMERIS_TYPE":0,"CLASSIFICATION_TYPE":"U","NORAD_CAT_ID":68337,"ELEMENT_SET_NO":999,"REV_AT_EPOCH":485,"BSTAR":-0.015656,"MEAN_MOTION_DOT":-0.01984541,"MEAN_MOTION_DDOT":0},{"OBJECT_NAME":"STARLINK-36254","OBJECT_ID":"2026-059T","EPOCH":"2026-04-14T20:00:01.999008","MEAN_MOTION":15.74292964,"ECCENTRICITY":9.05e-5,"INCLINATION":53.1586,"RA_OF_ASC_NODE":181.6311,"ARG_OF_PERICENTER":64.7455,"MEAN_ANOMALY":233.3639,"EPHEMERIS_TYPE":0,"CLASSIFICATION_TYPE":"U","NORAD_CAT_ID":68338,"ELEMENT_SET_NO":999,"REV_AT_EPOCH":485,"BSTAR":-0.015196,"MEAN_MOTION_DOT":-0.01938025,"MEAN_MOTION_DDOT":0},{"OBJECT_NAME":"STARLINK-37200","OBJECT_ID":"2026-059U","EPOCH":"2026-04-14T20:00:01.999008","MEAN_MOTION":15.73927326,"ECCENTRICITY":8.81e-5,"INCLINATION":53.1589,"RA_OF_ASC_NODE":181.6443,"ARG_OF_PERICENTER":61.873,"MEAN_ANOMALY":229.8507,"EPHEMERIS_TYPE":0,"CLASSIFICATION_TYPE":"U","NORAD_CAT_ID":68339,"ELEMENT_SET_NO":999,"REV_AT_EPOCH":485,"BSTAR":-0.015349,"MEAN_MOTION_DOT":-0.01928025,"MEAN_MOTION_DDOT":0},{"OBJECT_NAME":"STARLINK-37185","OBJECT_ID":"2026-059V","EPOCH":"2026-04-14T20:00:01.999008","MEAN_MOTION":15.70274764,"ECCENTRICITY":0.000105,"INCLINATION":53.1592,"RA_OF_ASC_NODE":181.6829,"ARG_OF_PERICENTER":73.2956,"MEAN_ANOMALY":199.3656,"EPHEMERIS_TYPE":0,"CLASSIFICATION_TYPE":"U","NORAD_CAT_ID":68340,"ELEMENT_SET_NO":999,"REV_AT_EPOCH":485,"BSTAR":-0.017949,"MEAN_MOTION_DOT":-0.01967948,"MEAN_MOTION_DDOT":0},{"OBJECT_NAME":"STARLINK-37181","OBJECT_ID":"2026-059W","EPOCH":"2026-04-12T18:04:41.463552","MEAN_MOTION":15.80526944,"ECCENTRICITY":0.00029558,"INCLINATION":53.1581,"RA_OF_ASC_NODE":192.0031,"ARG_OF_PERICENTER":55.119,"MEAN_ANOMALY":305.011,"EPHEMERIS_TYPE":0,"CLASSIFICATION_TYPE":"U","NORAD_CAT_ID":68341,"ELEMENT_SET_NO":999,"REV_AT_EPOCH":336,"BSTAR":-0.0019421162,"MEAN_MOTION_DOT":-0.00362729,"MEAN_MOTION_DDOT":0},{"OBJECT_NAME":"STARLINK-37192","OBJECT_ID":"2026-059X","EPOCH":"2026-04-14T20:00:01.999008","MEAN_MOTION":15.49303156,"ECCENTRICITY":8.34e-5,"INCLINATION":53.1594,"RA_OF_ASC_NODE":182.4608,"ARG_OF_PERICENTER":68.5187,"MEAN_ANOMALY":180.7259,"EPHEMERIS_TYPE":0,"CLASSIFICATION_TYPE":"U","NORAD_CAT_ID":68342,"ELEMENT_SET_NO":999,"REV_AT_EPOCH":485,"BSTAR":-2.7712e-5,"MEAN_MOTION_DOT":-1.988e-5,"MEAN_MOTION_DDOT":0},{"OBJECT_NAME":"STARLINK-37158","OBJECT_ID":"2026-059Y","EPOCH":"2026-04-14T20:00:01.999008","MEAN_MOTION":15.67608157,"ECCENTRICITY":0.0001155,"INCLINATION":53.1594,"RA_OF_ASC_NODE":181.7025,"ARG_OF_PERICENTER":69.103,"MEAN_ANOMALY":193.3543,"EPHEMERIS_TYPE":0,"CLASSIFICATION_TYPE":"U","NORAD_CAT_ID":68343,"ELEMENT_SET_NO":999,"REV_AT_EPOCH":485,"BSTAR":-0.019776,"MEAN_MOTION_DOT":-0.01943621,"MEAN_MOTION_DDOT":0},{"OBJECT_NAME":"STARLINK-36380","OBJECT_ID":"2026-059Z","EPOCH":"2026-04-14T20:00:01.999008","MEAN_MOTION":15.64897427,"ECCENTRICITY":0.0001346,"INCLINATION":53.1598,"RA_OF_ASC_NODE":181.79,"ARG_OF_PERICENTER":65.7104,"MEAN_ANOMALY":154.1902,"EPHEMERIS_TYPE":0,"CLASSIFICATION_TYPE":"U","NORAD_CAT_ID":68344,"ELEMENT_SET_NO":999,"REV_AT_EPOCH":485,"BSTAR":-0.022,"MEAN_MOTION_DOT":-0.01937327,"MEAN_MOTION_DDOT":0},{"OBJECT_NAME":"STARLINK-37214","OBJECT_ID":"2026-059AA","EPOCH":"2026-04-14T20:00:01.999008","MEAN_MOTION":15.68032347,"ECCENTRICITY":0.0001169,"INCLINATION":53.1587,"RA_OF_ASC_NODE":181.6752,"ARG_OF_PERICENTER":79.1835,"MEAN_ANOMALY":196.6558,"EPHEMERIS_TYPE":0,"CLASSIFICATION_TYPE":"U","NORAD_CAT_ID":68345,"ELEMENT_SET_NO":999,"REV_AT_EPOCH":485,"BSTAR":-0.019328,"MEAN_MOTION_DOT":-0.0193432,"MEAN_MOTION_DDOT":0},{"OBJECT_NAME":"STARLINK-37169","OBJECT_ID":"2026-059AB","EPOCH":"2026-04-14T20:00:01.999008","MEAN_MOTION":15.65832526,"ECCENTRICITY":0.0001222,"INCLINATION":53.1592,"RA_OF_ASC_NODE":181.7203,"ARG_OF_PERICENTER":72.7225,"MEAN_ANOMALY":180.9591,"EPHEMERIS_TYPE":0,"CLASSIFICATION_TYPE":"U","NORAD_CAT_ID":68346,"ELEMENT_SET_NO":999,"REV_AT_EPOCH":485,"BSTAR":-0.021236,"MEAN_MOTION_DOT":-0.0194141,"MEAN_MOTION_DDOT":0}]
