STARLINK-37001
1 68330U 26059K   26104.83335647 -.01964586  00000+0 -34418-1 0  9995
2 68330  53.1592 182.3469 0000850  62.8623 244.0178 15.53107433  4855
STARLINK-36932
1 68331U 26059L   26104.83335647 -.01960995  00000+0 -16105-1 0  9999
2 68331  53.1593 181.7215 0001107  80.6904 173.3293 15.72723460  4852
STARLINK-37205
1 68332U 26059M   26104.83335647 -.01947146  00000+0 -21046-1 0  9993
2 68332  53.1600 181.8452 0001319  62.7346 130.7254 15.66135952  4852
STARLINK-37180
1 68333U 26059N   26104.83335647 -.01564782  00000+0 -29943-1 0  9999
2 68333  53.1596 182.4474 0001388  65.9533 191.1453 15.50462461  4850
STARLINK-37191
1 68334U 26059P   26104.83335647 -.01930313  00000+0 -21013-1 0  9997
2 68334  53.1592 181.8322 0001393  58.8188 140.7106 15.65930993  4856
STARLINK-37217
1 68335U 26059Q   26104.83335647 -.01937951  00000+0 -21904-1 0  9992
2 68335  53.1603 181.8486 0001271  65.2929 126.3036 15.65015726  4851
STARLINK-37143
1 68336U 26059R   26104.83335647 -.01946061  00000+0 -18653-1 0  9992
2 68336  53.1594 181.7412 0001160  73.9826 169.8967 15.69053858  4855
STARLINK-36237
1 68337U 26059S   26104.83335647 -.01984541  00000+0 -15656-1 0  9998
2 68337  53.1589 181.6564 0000900  67.4591 218.5083 15.73689603  4854
STARLINK-36254
1 68338U 26059T   26104.83335647 -.01938025  00000+0 -15196-1 0  9994
2 68338  53.1586 181.6311 0000905  64.7455 233.3639 15.74292964  4859
STARLINK-37200
1 68339U 26059U   26104.83335647 -.01928025  00000+0 -15349-1 0  9994
2 68339  53.1589 181.6443 0000881  61.8730 229.8507 15.73927326  4856
STARLINK-37185
1 68340U 26059V   26104.83335647 -.01967948  00000+0 -17949-1 0  9991
2 68340  53.1592 181.6829 0001050  73.2956 199.3656 15.70274764  4850
STARLINK-37181
1 68341U 26059W   26102.75325768 -.00362729  00000+0 -19421-2 0  9997
2 68341  53.1581 192.0031 0002955  55.1190 305.0110 15.80526944  3361
STARLINK-37192
1 68342U 26059X   26104.83335647 -.00001988  00000+0 -27712-4 0  9997
2 68342  53.1594 182.4608 0000834  68.5187 180.7259 15.49303156  4857
STARLINK-37158
1 68343U 26059Y   26104.83335647 -.01943621  00000+0 -19776-1 0  9996
2 68343  53.1594 181.7025 0001155  69.1030 193.3543 15.67608157  4859
STARLINK-36380
1 68344U 26059Z   26104.83335647 -.01937327  00000+0 -22000-1 0  9997
2 68344  53.1598 181.7900 0001346  65.7104 154.1902 15.64897427  4853
STARLINK-37214
1 68345U 26059AA  26104.83335647 -.01934320  00000+0 -19328-1 0  9997
2 68345  53.1587 181.6752 0001169  79.1835 196.6558 15.68032347  4853
STARLINK-37169
1 68346U 26059AB  26104.83335647 -.01941410  00000+0 -21236-1 0  9997
2 68346  53.1592 181.7203 0001222  72.7225 180.9591 15.65832526  4851
